GLOBALSTAR M063 [+]     
1 26081U 00008A   23241.79431081 -.00000070  00000+0  18625-3 0  9992
2 26081  51.9971  42.8646 0005188 128.0204 340.3052 11.86143966 79626
GLOBALSTAR M062 [-]     
1 26082U 00008B   23241.98082264 -.00000082  00000+0  11686-3 0  9992
2 26082  51.9822 228.3424 0006788 147.9622 246.9500 12.43410197 77363
GLOBALSTAR M060 [-]     
1 26083U 00008C   23241.78783205 -.00000144  00000+0 -52601-3 0  9996
2 26083  52.0012  95.9167 0002513 227.5182 213.3894 12.17615866 72288
GLOBALSTAR M064 [-]     
1 26084U 00008D   23242.15110103 -.00000074  00000+0  12983-3 0  9990
2 26084  52.0023 148.5051 0000896 247.7416 112.3322 11.88509200 89085
GLOBALSTAR M065 [+]     
1 31571U 07020A   23242.02324265 -.00000034  00000+0  39158-3 0  9999
2 31571  51.9899  66.3580 0009485 297.5534 204.6625 12.61951398750731
GLOBALSTAR M069 [+]     
1 31573U 07020C   23242.14805273 -.00000099  00000+0  25105-4 0  9996
2 31573  51.9970  22.1916 0001373 104.5987 308.1236 12.62267377751505
GLOBALSTAR M072 [+]     
1 31574U 07020D   23241.83253300 -.00000105  00000+0 -49428-5 0  9994
2 31574  52.0083 118.8272 0001072  34.4417  43.8948 12.62264978749803
GLOBALSTAR M071 [P]     
1 31576U 07020F   23241.87305347 -.00000096  00000+0  46079-4 0  9995
2 31576  52.0086  27.9651 0001796 102.0950  20.4508 12.62266836751458
